line1,line2,validFromUtcTime
1 00000U 00000E   26001.00000000  .00000000  00000-0  27772-4 0    01,2 00000  88.8732 120.3344 0010053 270.0470 299.8818 13.55305287    08,2026-01-01T00:00:00Z
1 00000U 00000E   26002.00000000  .00000000  00000-0  27772-4 0    02,2 00000  88.8732 120.2198 0010053 267.1372 138.9793 13.55305326    01,2026-01-02T00:00:00Z
